[{"OBJECT_NAME":"OBJECT D","OBJECT_ID":"2024-203D","EPOCH":"2026-03-09T23:01:14.628576","MEAN_MOTION":15.25394324,"ECCENTRICITY":0.00105281,"INCLINATION":97.4343,"RA_OF_ASC_NODE":139.6527,"ARG_OF_PERICENTER":340.1906,"MEAN_ANOMALY":19.8921,"EPHEMERIS_TYPE":0,"CLASSIFICATION_TYPE":"U","NORAD_CAT_ID":61872,"ELEMENT_SET_NO":999,"REV_AT_EPOCH":7378,"BSTAR":0.00059366578,"MEAN_MOTION_DOT":0.00014956,"MEAN_MOTION_DDOT":0},{"OBJECT_NAME":"STARLINK-34986","OBJECT_ID":"2025-259AA","EPOCH":"2026-03-09T22:05:16.194048","MEAN_MOTION":15.27592953,"ECCENTRICITY":8.551e-5,"INCLINATION":42.9931,"RA_OF_ASC_NODE":273.2927,"ARG_OF_PERICENTER":16.5269,"MEAN_ANOMALY":343.561,"EPHEMERIS_TYPE":0,"CLASSIFICATION_TYPE":"U","NORAD_CAT_ID":66446,"ELEMENT_SET_NO":999,"REV_AT_EPOCH":1952,"BSTAR":0.00083905541,"MEAN_MOTION_DOT":0.00022908,"MEAN_MOTION_DDOT":0}]
